HULIANWANG DIGUI-144    
1 67442U 26007H   26026.90010653  .00000071  00000+0  17900-3 0  9995
2 67442  50.0098 241.5738 0003101 335.0870  24.9878 13.88709614  1857
HULIANWANG DIGUI-145    
1 67443U 26007J   26027.32960561  .00000111  00000+0  21097-3 0  9992
2 67443  50.0081 239.8418 0000190 289.8193  70.2684 13.89022206  1916
CZ-8A R/B               
1 67444U 26007K   26027.26197231  .00000160  00000+0  16016-3 0  9991
2 67444  50.0084 238.1306 0092170 129.7957 231.1112 14.13549242  1924
STARLINK-36542          
1 67445U 26008A   26027.58337963 -.01165613  00000+0 -51222-2 0  9991
2 67445  43.0012  83.1504 0001434 282.5900 292.5232 15.85979168  3183
STARLINK-36539          
1 67446U 26008B   26027.58337963 -.01196626  00000+0 -52739-2 0  9994
2 67446  43.0012  83.1432 0001411 279.6834 298.2250 15.85983785  3185
STARLINK-36440          
1 67447U 26008C   26027.58337963 -.01203378  00000+0 -53129-2 0  9992
2 67447  43.0014  83.1361 0001355 282.0033 298.9050 15.85963069  3183
STARLINK-36423          
1 67448U 26008D   26027.58337963 -.01210506  00000+0 -53514-2 0  9992
2 67448  43.0014  83.1289 0001317 284.0663 299.5688 15.85951737  3185
STARLINK-36519          
1 67449U 26008E   26027.58337963 -.01222750  00000+0 -54162-2 0  9997
2 67449  43.0013  83.1216 0001361 278.2120 308.3511 15.85936552  3189
STARLINK-36525          
1 67450U 26008F   26027.58337963 -.01234738  00000+0 -54847-2 0  9998
2 67450  43.0011  83.1129 0001436 279.5438 310.3695 15.85903478  3188
STARLINK-36511          
1 67451U 26008G   26027.58337963 -.01245821  00000+0 -55508-2 0  9999
2 67451  43.0012  83.1044 0001445 278.3630 314.9991 15.85864721  3183
STARLINK-36524          
1 67452U 26008H   26027.58337963 -.01255728  00000+0 -56061-2 0  9992
2 67452  43.0013  83.0967 0001467 280.5034 315.8101 15.85844842  3180
STARLINK-36518          
1 67453U 26008J   26027.58337963 -.01566677  00000+0 -65432-2 0  9993
2 67453  42.9998  82.7347 0001421 283.7164  94.4884 15.87345931  3206
