CCSDS_OMM_VERS = 2.0
CREATION_DATE  = 
ORIGINATOR     = 

OBJECT_NAME    = HULIANWANG DIGUI-144
OBJECT_ID      = 2026-007H
CENTER_NAME    = EARTH
REF_FRAME      = TEME
TIME_SYSTEM    = UTC
MEAN_ELEMENT_THEORY = SGP/SGP4

EPOCH          = 2026-01-26T21:36:09.204192
MEAN_MOTION    = 13.88709614
ECCENTRICITY   = .00031018
INCLINATION    = 50.0098
RA_OF_ASC_NODE = 241.5738
ARG_OF_PERICENTER = 335.0870
MEAN_ANOMALY   = 24.9878

EPHEMERIS_TYPE = 0
CLASSIFICATION_TYPE = U
NORAD_CAT_ID   = 67442
ELEMENT_SET_NO = 999
REV_AT_EPOCH   = 185
BSTAR          = .17900349E-3
MEAN_MOTION_DOT = .71E-6
MEAN_MOTION_DDOT = 0

CCSDS_OMM_VERS = 2.0
CREATION_DATE  = 
ORIGINATOR     = 

OBJECT_NAME    = HULIANWANG DIGUI-145
OBJECT_ID      = 2026-007J
CENTER_NAME    = EARTH
REF_FRAME      = TEME
TIME_SYSTEM    = UTC
MEAN_ELEMENT_THEORY = SGP/SGP4

EPOCH          = 2026-01-27T07:54:37.924704
MEAN_MOTION    = 13.89022206
ECCENTRICITY   = .000019
INCLINATION    = 50.0081
RA_OF_ASC_NODE = 239.8418
ARG_OF_PERICENTER = 289.8193
MEAN_ANOMALY   = 70.2684

EPHEMERIS_TYPE = 0
CLASSIFICATION_TYPE = U
NORAD_CAT_ID   = 67443
ELEMENT_SET_NO = 999
REV_AT_EPOCH   = 191
BSTAR          = .21097039E-3
MEAN_MOTION_DOT = .111E-5
MEAN_MOTION_DDOT = 0

CCSDS_OMM_VERS = 2.0
CREATION_DATE  = 
ORIGINATOR     = 

OBJECT_NAME    = CZ-8A R/B
OBJECT_ID      = 2026-007K
CENTER_NAME    = EARTH
REF_FRAME      = TEME
TIME_SYSTEM    = UTC
MEAN_ELEMENT_THEORY = SGP/SGP4

EPOCH          = 2026-01-27T06:17:14.407584
MEAN_MOTION    = 14.13549242
ECCENTRICITY   = .00921707
INCLINATION    = 50.0084
RA_OF_ASC_NODE = 238.1306
ARG_OF_PERICENTER = 129.7957
MEAN_ANOMALY   = 231.1112

EPHEMERIS_TYPE = 0
CLASSIFICATION_TYPE = U
NORAD_CAT_ID   = 67444
ELEMENT_SET_NO = 999
REV_AT_EPOCH   = 192
BSTAR          = .160159E-3
MEAN_MOTION_DOT = .16E-5
MEAN_MOTION_DDOT = 0

CCSDS_OMM_VERS = 2.0
CREATION_DATE  = 
ORIGINATOR     = 

OBJECT_NAME    = STARLINK-36542
OBJECT_ID      = 2026-008A
CENTER_NAME    = EARTH
REF_FRAME      = TEME
TIME_SYSTEM    = UTC
MEAN_ELEMENT_THEORY = SGP/SGP4

EPOCH          = 2026-01-27T14:00:04.000032
MEAN_MOTION    = 15.85979168
ECCENTRICITY   = .00014347
INCLINATION    = 43.0012
RA_OF_ASC_NODE = 83.1504
ARG_OF_PERICENTER = 282.5900
MEAN_ANOMALY   = 292.5232

EPHEMERIS_TYPE = 0
CLASSIFICATION_TYPE = U
NORAD_CAT_ID   = 67445
ELEMENT_SET_NO = 999
REV_AT_EPOCH   = 318
BSTAR          = -.51222334E-2
MEAN_MOTION_DOT = -.1165613E-1
MEAN_MOTION_DDOT = 0

CCSDS_OMM_VERS = 2.0
CREATION_DATE  = 
ORIGINATOR     = 

OBJECT_NAME    = STARLINK-36539
OBJECT_ID      = 2026-008B
CENTER_NAME    = EARTH
REF_FRAME      = TEME
TIME_SYSTEM    = UTC
MEAN_ELEMENT_THEORY = SGP/SGP4

EPOCH          = 2026-01-27T14:00:04.000032
MEAN_MOTION    = 15.85983785
ECCENTRICITY   = .0001411
INCLINATION    = 43.0012
RA_OF_ASC_NODE = 83.1432
ARG_OF_PERICENTER = 279.6834
MEAN_ANOMALY   = 298.2250

EPHEMERIS_TYPE = 0
CLASSIFICATION_TYPE = U
NORAD_CAT_ID   = 67446
ELEMENT_SET_NO = 999
REV_AT_EPOCH   = 318
BSTAR          = -.52739402E-2
MEAN_MOTION_DOT = -.1196626E-1
MEAN_MOTION_DDOT = 0

CCSDS_OMM_VERS = 2.0
CREATION_DATE  = 
ORIGINATOR     = 

OBJECT_NAME    = STARLINK-36440
OBJECT_ID      = 2026-008C
CENTER_NAME    = EARTH
REF_FRAME      = TEME
TIME_SYSTEM    = UTC
MEAN_ELEMENT_THEORY = SGP/SGP4

EPOCH          = 2026-01-27T14:00:04.000032
MEAN_MOTION    = 15.85963069
ECCENTRICITY   = .0001355
INCLINATION    = 43.0014
RA_OF_ASC_NODE = 83.1361
ARG_OF_PERICENTER = 282.0033
MEAN_ANOMALY   = 298.9050

EPHEMERIS_TYPE = 0
CLASSIFICATION_TYPE = U
NORAD_CAT_ID   = 67447
ELEMENT_SET_NO = 999
REV_AT_EPOCH   = 318
BSTAR          = -.53129273E-2
MEAN_MOTION_DOT = -.1203378E-1
MEAN_MOTION_DDOT = 0

CCSDS_OMM_VERS = 2.0
CREATION_DATE  = 
ORIGINATOR     = 

OBJECT_NAME    = STARLINK-36423
OBJECT_ID      = 2026-008D
CENTER_NAME    = EARTH
REF_FRAME      = TEME
TIME_SYSTEM    = UTC
MEAN_ELEMENT_THEORY = SGP/SGP4

EPOCH          = 2026-01-27T14:00:04.000032
MEAN_MOTION    = 15.85951737
ECCENTRICITY   = .00013179
INCLINATION    = 43.0014
RA_OF_ASC_NODE = 83.1289
ARG_OF_PERICENTER = 284.0663
MEAN_ANOMALY   = 299.5688

EPHEMERIS_TYPE = 0
CLASSIFICATION_TYPE = U
NORAD_CAT_ID   = 67448
ELEMENT_SET_NO = 999
REV_AT_EPOCH   = 318
BSTAR          = -.53513775E-2
MEAN_MOTION_DOT = -.1210506E-1
MEAN_MOTION_DDOT = 0

CCSDS_OMM_VERS = 2.0
CREATION_DATE  = 
ORIGINATOR     = 

OBJECT_NAME    = STARLINK-36519
OBJECT_ID      = 2026-008E
CENTER_NAME    = EARTH
REF_FRAME      = TEME
TIME_SYSTEM    = UTC
MEAN_ELEMENT_THEORY = SGP/SGP4

EPOCH          = 2026-01-27T14:00:04.000032
MEAN_MOTION    = 15.85936552
ECCENTRICITY   = .00013614
INCLINATION    = 43.0013
RA_OF_ASC_NODE = 83.1216
ARG_OF_PERICENTER = 278.2120
MEAN_ANOMALY   = 308.3511

EPHEMERIS_TYPE = 0
CLASSIFICATION_TYPE = U
NORAD_CAT_ID   = 67449
ELEMENT_SET_NO = 999
REV_AT_EPOCH   = 318
BSTAR          = -.5416199E-2
MEAN_MOTION_DOT = -.122275E-1
MEAN_MOTION_DDOT = 0

CCSDS_OMM_VERS = 2.0
CREATION_DATE  = 
ORIGINATOR     = 

OBJECT_NAME    = STARLINK-36525
OBJECT_ID      = 2026-008F
CENTER_NAME    = EARTH
REF_FRAME      = TEME
TIME_SYSTEM    = UTC
MEAN_ELEMENT_THEORY = SGP/SGP4

EPOCH          = 2026-01-27T14:00:04.000032
MEAN_MOTION    = 15.85903478
ECCENTRICITY   = .00014361
INCLINATION    = 43.0011
RA_OF_ASC_NODE = 83.1129
ARG_OF_PERICENTER = 279.5438
MEAN_ANOMALY   = 310.3695

EPHEMERIS_TYPE = 0
CLASSIFICATION_TYPE = U
NORAD_CAT_ID   = 67450
ELEMENT_SET_NO = 999
REV_AT_EPOCH   = 318
BSTAR          = -.54847318E-2
MEAN_MOTION_DOT = -.1234738E-1
MEAN_MOTION_DDOT = 0

CCSDS_OMM_VERS = 2.0
CREATION_DATE  = 
ORIGINATOR     = 

OBJECT_NAME    = STARLINK-36511
OBJECT_ID      = 2026-008G
CENTER_NAME    = EARTH
REF_FRAME      = TEME
TIME_SYSTEM    = UTC
MEAN_ELEMENT_THEORY = SGP/SGP4

EPOCH          = 2026-01-27T14:00:04.000032
MEAN_MOTION    = 15.85864721
ECCENTRICITY   = .00014459
INCLINATION    = 43.0012
RA_OF_ASC_NODE = 83.1044
ARG_OF_PERICENTER = 278.3630
MEAN_ANOMALY   = 314.9991

EPHEMERIS_TYPE = 0
CLASSIFICATION_TYPE = U
NORAD_CAT_ID   = 67451
ELEMENT_SET_NO = 999
REV_AT_EPOCH   = 318
BSTAR          = -.55508237E-2
MEAN_MOTION_DOT = -.1245821E-1
MEAN_MOTION_DDOT = 0

CCSDS_OMM_VERS = 2.0
CREATION_DATE  = 
ORIGINATOR     = 

OBJECT_NAME    = STARLINK-36524
OBJECT_ID      = 2026-008H
CENTER_NAME    = EARTH
REF_FRAME      = TEME
TIME_SYSTEM    = UTC
MEAN_ELEMENT_THEORY = SGP/SGP4

EPOCH          = 2026-01-27T14:00:04.000032
MEAN_MOTION    = 15.85844842
ECCENTRICITY   = .00014679
INCLINATION    = 43.0013
RA_OF_ASC_NODE = 83.0967
ARG_OF_PERICENTER = 280.5034
MEAN_ANOMALY   = 315.8101

EPHEMERIS_TYPE = 0
CLASSIFICATION_TYPE = U
NORAD_CAT_ID   = 67452
ELEMENT_SET_NO = 999
REV_AT_EPOCH   = 318
BSTAR          = -.56061004E-2
MEAN_MOTION_DOT = -.1255728E-1
MEAN_MOTION_DDOT = 0

CCSDS_OMM_VERS = 2.0
CREATION_DATE  = 
ORIGINATOR     = 

OBJECT_NAME    = STARLINK-36518
OBJECT_ID      = 2026-008J
CENTER_NAME    = EARTH
REF_FRAME      = TEME
TIME_SYSTEM    = UTC
MEAN_ELEMENT_THEORY = SGP/SGP4

EPOCH          = 2026-01-27T14:00:04.000032
MEAN_MOTION    = 15.87345931
ECCENTRICITY   = .00014213
INCLINATION    = 42.9998
RA_OF_ASC_NODE = 82.7347
ARG_OF_PERICENTER = 283.7164
MEAN_ANOMALY   = 94.4884

EPHEMERIS_TYPE = 0
CLASSIFICATION_TYPE = U
NORAD_CAT_ID   = 67453
ELEMENT_SET_NO = 999
REV_AT_EPOCH   = 320
BSTAR          = -.65431573E-2
MEAN_MOTION_DOT = -.1566677E-1
MEAN_MOTION_DDOT = 0

